{
  "type": "FeatureCollection",
  "name": "european-megalith-transport ice margins (schematic)",
  "note": "Schematic ice-margin lines and mountain ice-cap footprints for map context. Not survey-grade. Toggle on to compare haul destinations with Pleistocene ice cover. Salisbury Plain and Iberian/Armorican haul sites lie south of any ice sheet that could deliver Scottish/Welsh-scale erratics.",
  "features": [
    {
      "type": "Feature",
      "properties": {
        "id": "biis-lgm-south",
        "label": "BIIS / Devensian LGM \u2014 southern onshore margin (schematic)",
        "kind": "ice-sheet-margin",
        "age": "Devensian LGM ~27\u201323 ka",
        "style": "solid",
        "cite": "Clark et al. 2022 BRITICE-CHRONO (Boreas); BRITICE v2 Clark et al. 2018"
      },
      "geometry": {
        "type": "LineString",
        "coordinates": [
          [
            -5.8,
            51.65
          ],
          [
            -5.2,
            51.55
          ],
          [
            -4.6,
            51.48
          ],
          [
            -4.0,
            51.42
          ],
          [
            -3.4,
            51.45
          ],
          [
            -2.9,
            51.55
          ],
          [
            -2.4,
            51.65
          ],
          [
            -1.9,
            51.78
          ],
          [
            -1.3,
            51.92
          ],
          [
            -0.7,
            52.05
          ],
          [
            -0.1,
            52.12
          ],
          [
            0.5,
            52.2
          ],
          [
            1.0,
            52.35
          ],
          [
            1.4,
            52.55
          ],
          [
            1.6,
            52.85
          ]
        ]
      }
    },
    {
      "type": "Feature",
      "properties": {
        "id": "anglian-evidence",
        "label": "Anglian \u2014 limit of preserved onshore evidence (schematic; SW poorly constrained)",
        "kind": "ice-sheet-margin",
        "age": "Anglian ~478\u2013424 ka",
        "style": "dashed",
        "cite": "Clark and Evans 2025 PGA; Finchley / East Anglia till limit tradition"
      },
      "geometry": {
        "type": "LineString",
        "coordinates": [
          [
            -4.2,
            51.15
          ],
          [
            -3.6,
            51.25
          ],
          [
            -3.0,
            51.35
          ],
          [
            -2.4,
            51.42
          ],
          [
            -1.8,
            51.45
          ],
          [
            -1.2,
            51.48
          ],
          [
            -0.6,
            51.52
          ],
          [
            -0.2,
            51.55
          ],
          [
            0.05,
            51.58
          ],
          [
            0.25,
            51.6
          ],
          [
            0.5,
            51.62
          ],
          [
            0.9,
            51.7
          ],
          [
            1.2,
            51.85
          ],
          [
            1.5,
            52.05
          ]
        ]
      }
    },
    {
      "type": "Feature",
      "properties": {
        "id": "pyrenees-lgm",
        "label": "Pyrenees mountain ice (LGM footprint, schematic)",
        "kind": "mountain-ice",
        "age": "Local LGM / W\u00fcrm mountain ice",
        "style": "fill",
        "cite": "Pyrenean glacial reviews (e.g. Delmas overview; Jim\u00e9nez-S\u00e1nchez et al.)"
      },
      "geometry": {
        "type": "Polygon",
        "coordinates": [
          [
            [
              -1.9,
              42.55
            ],
            [
              -0.9,
              42.7
            ],
            [
              0.2,
              42.65
            ],
            [
              1.4,
              42.55
            ],
            [
              2.3,
              42.4
            ],
            [
              2.5,
              42.55
            ],
            [
              2.0,
              42.85
            ],
            [
              1.0,
              43.0
            ],
            [
              -0.2,
              43.05
            ],
            [
              -1.2,
              42.95
            ],
            [
              -1.9,
              42.75
            ],
            [
              -1.9,
              42.55
            ]
          ]
        ]
      }
    },
    {
      "type": "Feature",
      "properties": {
        "id": "massif-central-lgm",
        "label": "Massif Central ice caps (Cantal\u2013Aubrac, schematic)",
        "kind": "mountain-ice",
        "age": "Local LGM mountain ice",
        "style": "fill",
        "cite": "Massif Central Quaternary glacier reviews"
      },
      "geometry": {
        "type": "Polygon",
        "coordinates": [
          [
            [
              2.4,
              44.85
            ],
            [
              2.9,
              45.15
            ],
            [
              3.2,
              45.35
            ],
            [
              3.0,
              45.55
            ],
            [
              2.55,
              45.45
            ],
            [
              2.25,
              45.15
            ],
            [
              2.4,
              44.85
            ]
          ]
        ]
      }
    },
    {
      "type": "Feature",
      "properties": {
        "id": "alps-lgm",
        "label": "Alpine ice-field (western Alps LGM footprint, schematic)",
        "kind": "mountain-ice",
        "age": "Alpine LGM",
        "style": "fill",
        "cite": "Alpine LGM reconstructions (e.g. Ivy-Ochs / Seguinot summaries)"
      },
      "geometry": {
        "type": "Polygon",
        "coordinates": [
          [
            [
              5.5,
              44.2
            ],
            [
              6.5,
              44.5
            ],
            [
              7.5,
              45.0
            ],
            [
              8.5,
              45.5
            ],
            [
              9.5,
              46.0
            ],
            [
              10.2,
              46.5
            ],
            [
              10.0,
              47.2
            ],
            [
              9.0,
              47.5
            ],
            [
              7.5,
              47.3
            ],
            [
              6.5,
              46.8
            ],
            [
              5.8,
              46.2
            ],
            [
              5.3,
              45.2
            ],
            [
              5.5,
              44.2
            ]
          ]
        ]
      }
    }
  ]
}
